CS1                     
1 49261U 21088B   26068.75173904  .00015722  00000+0  51176-3 0  9998
2 49261  97.3882 132.1684 0014129  78.0335 282.2490 15.31848439245182
STARLINK-31308          
1 59153U 24044B   26068.01372359  .00000726  00000+0  35921-4 0  9997
2 59153  43.0032  64.0106 0001482 280.6696  79.3989 15.27567770114048
